OBJECT_NAME,OBJECT_ID,EPOCH,MEAN_MOTION,ECCENTRICITY,INCLINATION,RA_OF_ASC_NODE,ARG_OF_PERICENTER,MEAN_ANOMALY,EPHEMERIS_TYPE,CLASSIFICATION_TYPE,NORAD_CAT_ID,ELEMENT_SET_NO,REV_AT_EPOCH,BSTAR,MEAN_MOTION_DOT,MEAN_MOTION_DDOT
GSAT-10,2012-051B,2026-07-12T10:29:04.493184,1.00271483,.00073901,0.0995,265.3816,187.6646,77.5246,0,U,38779,999,5035,0,-.163E-5,0
INTELSAT 23 (IS-23),2012-057A,2026-07-12T10:39:10.862208,1.00274365,.00002947,0.0074,53.5558,138.9663,204.6019,0,U,38867,999,5020,0,-.283E-5,0
BEIDOU-2 G6,2012-059A,2026-07-12T01:56:01.093344,1.00274040,.00091714,4.4807,73.2545,326.5797,3.1056,0,U,38953,999,5015,0,-.177E-5,0
LUCH-5B,2012-061A,2026-07-12T10:00:37.221408,1.00270705,.00038351,10.5347,49.6244,145.5036,229.0762,0,U,38977,999,4986,0,-.144E-5,0
YAMAL 300K,2012-061B,2026-07-12T14:22:54.405120,1.00270084,.00005416,0.0206,258.9450,337.4070,92.8272,0,U,38978,999,4988,0,.71E-6,0
STAR ONE C3,2012-062A,2026-07-12T11:26:34.369152,1.00269284,.00022803,0.0154,351.7445,134.4281,260.8492,0,U,38991,999,5001,0,-.248E-5,0
EUTELSAT 21B,2012-062B,2026-07-12T11:54:01.738080,1.00267993,.00032414,0.0656,7.8972,107.7948,14.7766,0,U,38992,999,5008,0,.13E-5,0
ECHOSTAR 16,2012-065A,2026-07-12T10:33:06.503904,1.00272454,.00022082,0.0186,55.0429,54.6543,277.4174,0,U,39008,999,4989,0,-.281E-5,0
ZHONGXING-12,2012-067A,2026-07-12T02:57:21.693600,1.00272834,.00026492,0.0272,101.2838,9.0919,311.4740,0,U,39017,999,4975,0,-.204E-5,0
EUTELSAT 70B,2012-069A,2026-07-12T12:08:07.885248,1.00271150,.00036512,0.0610,354.7826,115.7121,72.4274,0,U,39020,999,4976,0,-.42E-6,0
YAMAL 402,2012-070A,2026-07-12T15:29:03.063840,1.00270425,.00035428,1.3275,83.8385,23.8882,109.9607,0,U,39022,999,4965,0,.85E-6,0
SKYNET 5D,2012-075A,2026-07-12T12:03:08.364096,1.00268954,.00033372,0.0688,351.5319,130.0521,42.3551,0,U,39034,999,4941,0,.101E-5,0
MEXSAT 3,2012-075B,2026-07-12T11:15:20.445696,1.00269580,.00009554,0.0137,327.2454,132.7514,244.4226,0,U,39035,999,730,0,-.24E-6,0
TDRS 11,2013-004A,2026-07-12T13:17:22.119936,1.00278483,.00046577,3.5577,31.6594,30.6314,253.2779,0,U,39070,999,4694,0,.79E-6,0
AMAZONAS 3,2013-006A,2026-07-12T10:33:06.503904,1.00273170,.0003163,0.0462,227.6811,283.3899,236.5201,0,U,39078,999,4516,0,-.281E-5,0
AZERSPACE 1,2013-006B,2026-07-12T12:01:08.554944,1.00268791,.00016555,0.0154,337.9605,169.8115,8.9018,0,U,39079,999,4906,0,.134E-5,0
SBIRS GEO-2 (USA 241),2013-011A,2026-07-12T11:33:48.676032,1.00271252,.00020529,4.5425,52.5097,51.4081,310.1043,0,U,39120,999,4879,0,-.289E-5,0
EUTELSAT 117 WEST A,2013-012A,2026-07-12T09:23:38.695776,1.00271400,.00026175,0.0163,41.9880,75.4806,196.9163,0,U,39122,999,4868,0,-.11E-6,0
ANIK G1,2013-014A,2026-07-12T11:17:20.253984,1.00271182,.00016148,0.0477,257.8368,226.3522,228.1988,0,U,39127,999,4850,0,-.73E-6,0
ZHONGXING-11,2013-020A,2026-07-12T15:41:15.100800,1.00269802,.00020828,0.0287,47.8592,37.3160,178.5839,0,U,39157,999,4815,0,-.29E-5,0
EUTELSAT 7B,2013-022A,2026-07-12T11:13:38.809056,1.00272276,.00034879,0.0647,7.6511,38.8638,59.2517,0,U,39163,999,4820,0,.49E-6,0
WGS F5 (USA 243),2013-024A,2026-07-12T10:39:10.862208,1.00269283,.00003425,0.0254,46.8228,203.0492,147.7620,0,U,39168,999,4742,0,0,0
SES-6,2013-026A,2026-07-12T11:36:25.924032,1.00271634,.00022769,0.0306,315.6968,166.6955,301.5915,0,U,39172,999,4797,0,-.26E-5,0
IRNSS-1A,2013-034A,2026-07-10T17:17:25.712736,1.00281941,.0017567,35.7704,63.5328,183.4462,356.2994,0,U,39199,999,4760,0,.47E-6,0
MUOS-2,2013-036A,2026-07-12T10:19:56.572896,1.00271929,.0052466,5.0442,45.5544,176.3842,35.3161,0,U,39206,999,4744,0,-.16E-6,0
ALPHASAT,2013-038A,2026-07-12T11:55:09.130080,1.00273783,.00021344,2.9991,1.1847,139.8752,352.9834,0,U,39215,999,4427,0,.134E-5,0
INSAT-3D,2013-038B,2026-07-12T12:24:59.567040,1.00269695,.00005056,1.9888,82.2217,85.1927,78.7606,0,U,39216,999,4733,0,-.34E-5,0
WGS F6 (USA 244),2013-041A,2026-07-12T11:47:38.688864,1.00270787,.00008748,0.0184,33.9470,189.1597,109.0019,0,U,39222,999,4631,0,.9E-6,0
ES'HAIL 1,2013-044A,2026-07-12T05:04:40.118016,1.00274020,.000213,0.0489,15.3833,101.8213,274.5886,0,U,39233,999,4687,0,.146E-5,0
GSAT-7,2013-044B,2026-07-12T12:09:07.789824,1.00271118,.00032317,0.1437,89.7926,177.1546,279.6835,0,U,39234,999,4551,0,-.76E-6,0
AMOS-4,2013-045A,2026-07-12T12:06:30.540960,1.00270180,.00022823,0.0398,256.1679,185.2191,95.6433,0,U,39237,999,4721,0,.9E-7,0
AEHF-3 (USA 246),2013-050A,2026-07-12T11:39:38.742048,1.00270377,.00883554,5.3543,66.9530,187.6909,86.3745,0,U,39256,999,4590,0,.25E-6,0
