GSAT-10                 
1 38779U 12051B   26193.43685756 -.00000163  00000+0  00000+0 0  9997
2 38779   0.0995 265.3816 0007390 187.6646  77.5246  1.00271483 50357
INTELSAT 23 (IS-23)     
1 38867U 12057A   26193.44387572 -.00000283  00000+0  00000+0 0  9990
2 38867   0.0074  53.5558 0000294 138.9663 204.6019  1.00274365 50204
BEIDOU-2 G6             
1 38953U 12059A   26193.08056821 -.00000177  00000+0  00000+0 0  9990
2 38953   4.4807  73.2545 0009171 326.5797   3.1056  1.00274040 50150
LUCH-5B                 
1 38977U 12061A   26193.41709747 -.00000144  00000+0  00000+0 0  9992
2 38977  10.5347  49.6244 0003835 145.5036 229.0762  1.00270705 49865
YAMAL 300K              
1 38978U 12061B   26193.59924080  .00000071  00000+0  00000+0 0  9999
2 38978   0.0206 258.9450 0000541 337.4070  92.8272  1.00270084 49883
STAR ONE C3             
1 38991U 12062A   26193.47678668 -.00000248  00000+0  00000+0 0  9997
2 38991   0.0154 351.7445 0002280 134.4281 260.8492  1.00269284 50015
EUTELSAT 21B            
1 38992U 12062B   26193.49585345  .00000130  00000+0  00000+0 0  9998
2 38992   0.0656   7.8972 0003241 107.7948  14.7766  1.00267993 50080
ECHOSTAR 16             
1 39008U 12065A   26193.43965861 -.00000281  00000+0  00000+0 0  9997
2 39008   0.0186  55.0429 0002208  54.6543 277.4174  1.00272454 49898
ZHONGXING-12            
1 39017U 12067A   26193.12316775 -.00000204  00000+0  00000+0 0  9994
2 39017   0.0272 101.2838 0002649   9.0919 311.4740  1.00272834 49757
EUTELSAT 70B            
1 39020U 12069A   26193.50564682 -.00000042  00000+0  00000+0 0  9994
2 39020   0.0610 354.7826 0003651 115.7121  72.4274  1.00271150 49760
YAMAL 402               
1 39022U 12070A   26193.64517435  .00000085  00000+0  00000+0 0  9993
2 39022   1.3275  83.8385 0003542  23.8882 109.9607  1.00270425 49653
SKYNET 5D               
1 39034U 12075A   26193.50218014  .00000101  00000+0  00000+0 0  9996
2 39034   0.0688 351.5319 0003337 130.0521  42.3551  1.00268954 49411
MEXSAT 3                
1 39035U 12075B   26193.46898664 -.00000024  00000+0  00000+0 0  9992
2 39035   0.0137 327.2454 0000955 132.7514 244.4226  1.00269580  7307
TDRS 11                 
1 39070U 13004A   26193.55372824  .00000079  00000+0  00000+0 0  9998
2 39070   3.5577  31.6594 0004657  30.6314 253.2779  1.00278483 46946
AMAZONAS 3              
1 39078U 13006A   26193.43965861 -.00000281  00000+0  00000+0 0  9990
2 39078   0.0462 227.6811 0003163 283.3899 236.5201  1.00273170 45169
AZERSPACE 1             
1 39079U 13006B   26193.50079346  .00000134  00000+0  00000+0 0  9999
2 39079   0.0154 337.9605 0001655 169.8115   8.9018  1.00268791 49060
SBIRS GEO-2 (USA 241)   
1 39120U 13011A   26193.48181338 -.00000289  00000+0  00000+0 0  9996
2 39120   4.5425  52.5097 0002052  51.4081 310.1043  1.00271252 48793
EUTELSAT 117 WEST A     
1 39122U 13012A   26193.39142009 -.00000011  00000+0  00000+0 0  9994
2 39122   0.0163  41.9880 0002617  75.4806 196.9163  1.00271400 48681
ANIK G1                 
1 39127U 13014A   26193.47037331 -.00000073  00000+0  00000+0 0  9999
2 39127   0.0477 257.8368 0001614 226.3522 228.1988  1.00271182 48502
ZHONGXING-11            
1 39157U 13020A   26193.65364700 -.00000290  00000+0  00000+0 0  9993
2 39157   0.0287  47.8592 0002082  37.3160 178.5839  1.00269802 48158
EUTELSAT 7B             
1 39163U 13022A   26193.46781029  .00000049  00000+0  00000+0 0  9999
2 39163   0.0647   7.6511 0003487  38.8638  59.2517  1.00272276 48209
WGS F5 (USA 243)        
1 39168U 13024A   26193.44387572  .00000000  00000+0  00000+0 0  9996
2 39168   0.0254  46.8228 0000342 203.0492 147.7620  1.00269283 47424
SES-6                   
1 39172U 13026A   26193.48363338 -.00000260  00000+0  00000+0 0  9990
2 39172   0.0306 315.6968 0002276 166.6955 301.5915  1.00271634 47971
IRNSS-1A                
1 39199U 13034A   26191.72043649  .00000047  00000+0  00000+0 0  9995
2 39199  35.7704  63.5328 0017567 183.4462 356.2994  1.00281941 47601
MUOS-2                  
1 39206U 13036A   26193.43051589 -.00000016  00000+0  00000+0 0  9995
2 39206   5.0442  45.5544 0052466 176.3842  35.3161  1.00271929 47447
ALPHASAT                
1 39215U 13038A   26193.49663345  .00000134  00000+0  00000+0 0  9992
2 39215   2.9991   1.1847 0002134 139.8752 352.9834  1.00273783 44270
INSAT-3D                
1 39216U 13038B   26193.51735610 -.00000340  00000+0  00000+0 0  9991
2 39216   1.9888  82.2217 0000505  85.1927  78.7606  1.00269695 47330
WGS F6 (USA 244)        
1 39222U 13041A   26193.49142001  .00000090  00000+0  00000+0 0  9996
2 39222   0.0184  33.9470 0000874 189.1597 109.0019  1.00270787 46314
ES'HAIL 1               
1 39233U 13044A   26193.21157544  .00000146  00000+0  00000+0 0  9991
2 39233   0.0489  15.3833 0002130 101.8213 274.5886  1.00274020 46879
GSAT-7                  
1 39234U 13044B   26193.50634016 -.00000076  00000+0  00000+0 0  9991
2 39234   0.1437  89.7926 0003231 177.1546 279.6835  1.00271118 45515
AMOS-4                  
1 39237U 13045A   26193.50452015  .00000009  00000+0  00000+0 0  9997
2 39237   0.0398 256.1679 0002282 185.2191  95.6433  1.00270180 47216
AEHF-3 (USA 246)        
1 39256U 13050A   26193.48586507  .00000025  00000+0  00000+0 0  9993
2 39256   5.3543  66.9530 0088355 187.6909  86.3745  1.00270377 45903
